[{"CCSDS_OMM_VERS":"2.0","COMMENT":"GENERATED VIA SPACE-TRACK.ORG API","CREATION_DATE":"2004-08-15T23:35:29","ORIGINATOR":"18 SPCS","OBJECT_NAME":"DISCOVERER 38 DEB","OBJECT_ID":"1962-005C","CENTER_NAME":"EARTH","REF_FRAME":"TEME","TIME_SYSTEM":"UTC","MEAN_ELEMENT_THEORY":"SGP4","EPOCH":"1962-02-28T23:36:33.626592","MEAN_MOTION":"16.16415999","ECCENTRICITY":"0.00329690","INCLINATION":"82.2337","RA_OF_ASC_NODE":"156.6391","ARG_OF_PERICENTER":"132.3110","MEAN_ANOMALY":"131.0334","EPHEMERIS_TYPE":"0","CLASSIFICATION_TYPE":"U","NORAD_CAT_ID":"249","ELEMENT_SET_NO":"999","REV_AT_EPOCH":"19","BSTAR":"0.00000000000000","MEAN_MOTION_DOT":"0.12602922","MEAN_MOTION_DDOT":"0.0000000000000","SEMIMAJOR_AXIS":"6607.441","PERIOD":"89.085","APOAPSIS":"251.091","PERIAPSIS":"207.522","OBJECT_TYPE":"DEBRIS","RCS_SIZE":null,"COUNTRY_CODE":null,"LAUNCH_DATE":null,"SITE":null,"DECAY_DATE":"1962-03-03","FILE":"33908","GP_ID":"8676947","TLE_LINE0":"0 DISCOVERER 38 DEB","TLE_LINE1":"1 00249U 62005  C 62059.98372253  .12602922 +00000-0 +00000-0 0  9993","TLE_LINE2":"2 00249 082.2337 156.6391 0032969 132.3110 131.0334 16.16415999000199"},{"CCSDS_OMM_VERS":"2.0","COMMENT":"GENERATED VIA SPACE-TRACK.ORG API","CREATION_DATE":"2004-08-15T23:35:29","ORIGINATOR":"18 SPCS","OBJECT_NAME":"DISCOVERER 38 DEB","OBJECT_ID":"1962-005D","CENTER_NAME":"EARTH","REF_FRAME":"TEME","TIME_SYSTEM":"UTC","MEAN_ELEMENT_THEORY":"SGP4","EPOCH":"1962-03-05T17:09:11.757024","MEAN_MOTION":"16.06331308","ECCENTRICITY":"0.00744680","INCLINATION":"82.2337","RA_OF_ASC_NODE":"151.2263","ARG_OF_PERICENTER":"114.1119","MEAN_ANOMALY":"159.3763","EPHEMERIS_TYPE":"0","CLASSIFICATION_TYPE":"U","NORAD_CAT_ID":"251","ELEMENT_SET_NO":"999","REV_AT_EPOCH":"94","BSTAR":"0.00000000000000","MEAN_MOTION_DOT":"0.12386287","MEAN_MOTION_DDOT":"0.0000000000000","SEMIMAJOR_AXIS":"6635.067","PERIOD":"89.645","APOAPSIS":"306.342","PERIAPSIS":"207.522","OBJECT_TYPE":"DEBRIS","RCS_SIZE":null,"COUNTRY_CODE":null,"LAUNCH_DATE":null,"SITE":null,"DECAY_DATE":"1962-03-07","FILE":"33908","GP_ID":"8676957","TLE_LINE0":"0 DISCOVERER 38 DEB","TLE_LINE1":"1 00251U 62005  D 62064.71471941  .12386287 +00000-0 +00000-0 0  9990","TLE_LINE2":"2 00251 082.2337 151.2263 0074468 114.1119 159.3763 16.06331308000940"},{"CCSDS_OMM_VERS":"2.0","COMMENT":"GENERATED VIA SPACE-TRACK.ORG API","CREATION_DATE":"2004-08-15T23:35:29","ORIGINATOR":"18 SPCS","OBJECT_NAME":"SAMOS 6 DEB (REFLECTOR)","OBJECT_ID":"1962-007B","CENTER_NAME":"EARTH","REF_FRAME":"TEME","TIME_SYSTEM":"UTC","MEAN_ELEMENT_THEORY":"SGP4","EPOCH":"1962-03-29T15:23:19.829472","MEAN_MOTION":"16.19198095","ECCENTRICITY":"0.00319410","INCLINATION":"90.8226","RA_OF_ASC_NODE":"200.9058","ARG_OF_PERICENTER":"49.6100","MEAN_ANOMALY":"310.6948","EPHEMERIS_TYPE":"0","CLASSIFICATION_TYPE":"U","NORAD_CAT_ID":"258","ELEMENT_SET_NO":"999","REV_AT_EPOCH":"348","BSTAR":"0.00000000000000","MEAN_MOTION_DOT":"0.00828543","MEAN_MOTION_DDOT":"0.0000000000000","SEMIMAJOR_AXIS":"6599.871","PERIOD":"88.932","APOAPSIS":"242.816","PERIAPSIS":"200.655","OBJECT_TYPE":"DEBRIS","RCS_SIZE":null,"COUNTRY_CODE":null,"LAUNCH_DATE":null,"SITE":null,"DECAY_DATE":"1962-03-31","FILE":"33908","GP_ID":"8677069","TLE_LINE0":"0 SAMOS 6 DEB (REFLECTOR)","TLE_LINE1":"1 00258U 62007  B 62088.64120173  .00828543 +00000-0 +00000-0 0  9998","TLE_LINE2":"2 00258 090.8226 200.9058 0031941 049.6100 310.6948 16.19198095003481"},{"CCSDS_OMM_VERS":"2.0","COMMENT":"GENERATED VIA SPACE-TRACK.ORG API","CREATION_DATE":"2004-08-15T23:35:29","ORIGINATOR":"18 SPCS","OBJECT_NAME":"MIDAS 5 DEB","OBJECT_ID":"1962-010B","CENTER_NAME":"EARTH","REF_FRAME":"TEME","TIME_SYSTEM":"UTC","MEAN_ELEMENT_THEORY":"SGP4","EPOCH":"1962-04-11T20:02:14.909856","MEAN_MOTION":"12.62199136","ECCENTRICITY":"0.16877990","INCLINATION":"86.6390","RA_OF_ASC_NODE":"125.3948","ARG_OF_PERICENTER":"164.3815","MEAN_ANOMALY":"172.0584","EPHEMERIS_TYPE":"0","CLASSIFICATION_TYPE":"U","NORAD_CAT_ID":"272","ELEMENT_SET_NO":"999","REV_AT_EPOCH":"28","BSTAR":"0.00000000000000","MEAN_MOTION_DOT":"0.04379992","MEAN_MOTION_DDOT":"0.0000000000000","SEMIMAJOR_AXIS":"7792.022","PERIOD":"114.086","APOAPSIS":"2729.024","PERIAPSIS":"98.750","OBJECT_TYPE":"DEBRIS","RCS_SIZE":null,"COUNTRY_CODE":null,"LAUNCH_DATE":null,"SITE":null,"DECAY_DATE":"1962-05-04","FILE":"33908","GP_ID":"8677301","TLE_LINE0":"0 MIDAS 5 DEB","TLE_LINE1":"1 00272U 62010  B 62101.83489479  .04379992 +00000-0 +00000-0 0  9995","TLE_LINE2":"2 00272 086.6390 125.3948 1687799 164.3815 172.0584 12.62199136000289"},{"CCSDS_OMM_VERS":"2.0","COMMENT":"GENERATED VIA SPACE-TRACK.ORG API","CREATION_DATE":"2004-08-15T23:35:29","ORIGINATOR":"18 SPCS","OBJECT_NAME":"FTV 1127 DEB","OBJECT_ID":"1962-022C","CENTER_NAME":"EARTH","REF_FRAME":"TEME","TIME_SYSTEM":"UTC","MEAN_ELEMENT_THEORY":"SGP4","EPOCH":"1962-06-02T21:04:07.855679","MEAN_MOTION":"16.02253428","ECCENTRICITY":"0.01369480","INCLINATION":"74.2554","RA_OF_ASC_NODE":"327.2565","ARG_OF_PERICENTER":"132.7372","MEAN_ANOMALY":"53.8840","EPHEMERIS_TYPE":"0","CLASSIFICATION_TYPE":"U","NORAD_CAT_ID":"306","ELEMENT_SET_NO":"999","REV_AT_EPOCH":"14","BSTAR":"0.00000000000000","MEAN_MOTION_DOT":"0.07149502","MEAN_MOTION_DDOT":"0.0000000000000","SEMIMAJOR_AXIS":"6646.320","PERIOD":"89.873","APOAPSIS":"359.206","PERIAPSIS":"177.165","OBJECT_TYPE":"DEBRIS","RCS_SIZE":null,"COUNTRY_CODE":null,"LAUNCH_DATE":null,"SITE":null,"DECAY_DATE":"1962-06-06","FILE":"33908","GP_ID":"8677576","TLE_LINE0":"0 FTV 1127 DEB","TLE_LINE1":"1 00306U 62022  C 62153.87786870  .07149502 +00000-0 +00000-0 0  9997","TLE_LINE2":"2 00306 074.2554 327.2565 0136948 132.7372 053.8840 16.02253428000140"},{"CCSDS_OMM_VERS":"2.0","COMMENT":"GENERATED VIA SPACE-TRACK.ORG API","CREATION_DATE":"2004-08-15T23:35:29","ORIGINATOR":"18 SPCS","OBJECT_NAME":"THOR ABLESTAR DEB","OBJECT_ID":"1961-015AD","CENTER_NAME":"EARTH","REF_FRAME":"TEME","TIME_SYSTEM":"UTC","MEAN_ELEMENT_THEORY":"SGP4","EPOCH":"1962-06-13T19:11:56.871455","MEAN_MOTION":"16.02917191","ECCENTRICITY":"0.00413680","INCLINATION":"66.2402","RA_OF_ASC_NODE":"112.5975","ARG_OF_PERICENTER":"55.8253","MEAN_ANOMALY":"356.3771","EPHEMERIS_TYPE":"0","CLASSIFICATION_TYPE":"U","NORAD_CAT_ID":"143","ELEMENT_SET_NO":"999","REV_AT_EPOCH":"5290","BSTAR":"0.00000000000000","MEAN_MOTION_DOT":"0.01714948","MEAN_MOTION_DDOT":"0.0000000000000","SEMIMAJOR_AXIS":"6644.486","PERIOD":"89.836","APOAPSIS":"293.837","PERIAPSIS":"238.864","OBJECT_TYPE":"DEBRIS","RCS_SIZE":null,"COUNTRY_CODE":null,"LAUNCH_DATE":null,"SITE":null,"DECAY_DATE":"1962-06-16","FILE":"33908","GP_ID":"8675947","TLE_LINE0":"0 THOR ABLESTAR DEB","TLE_LINE1":"1 00143U 61015 AD 62164.79996379  .01714948 +00000-0 +00000-0 0  9993","TLE_LINE2":"2 00143 066.2402 112.5975 0041368 055.8253 356.3771 16.02917191052905"},{"CCSDS_OMM_VERS":"2.0","COMMENT":"GENERATED VIA SPACE-TRACK.ORG API","CREATION_DATE":"2004-08-15T23:35:29","ORIGINATOR":"18 SPCS","OBJECT_NAME":"FTV 1126 DEB","OBJECT_ID":"1962-018B","CENTER_NAME":"EARTH","REF_FRAME":"TEME","TIME_SYSTEM":"UTC","MEAN_ELEMENT_THEORY":"SGP4","EPOCH":"1962-07-01T12:47:51.002879","MEAN_MOTION":"16.03643011","ECCENTRICITY":"0.00942290","INCLINATION":"82.2700","RA_OF_ASC_NODE":"182.6894","ARG_OF_PERICENTER":"9.2932","MEAN_ANOMALY":"350.5505","EPHEMERIS_TYPE":"0","CLASSIFICATION_TYPE":"U","NORAD_CAT_ID":"293","ELEMENT_SET_NO":"999","REV_AT_EPOCH":"725","BSTAR":"0.00000000000000","MEAN_MOTION_DOT":"0.02472647","MEAN_MOTION_DDOT":"0.0000000000000","SEMIMAJOR_AXIS":"6642.481","PERIOD":"89.795","APOAPSIS":"326.937","PERIAPSIS":"201.754","OBJECT_TYPE":"DEBRIS","RCS_SIZE":null,"COUNTRY_CODE":null,"LAUNCH_DATE":null,"SITE":null,"DECAY_DATE":"1962-07-03","FILE":"33908","GP_ID":"8677445","TLE_LINE0":"0 FTV 1126 DEB","TLE_LINE1":"1 00293U 62018  B 62182.53322920  .02472647 +00000-0 +00000-0 0  9998","TLE_LINE2":"2 00293 082.2700 182.6894 0094229 009.2932 350.5505 16.03643011007256"},{"CCSDS_OMM_VERS":"2.0","COMMENT":"GENERATED VIA SPACE-TRACK.ORG API","CREATION_DATE":"2004-08-15T23:35:29","ORIGINATOR":"18 SPCS","OBJECT_NAME":"FTV 2312 DEB","OBJECT_ID":"1962-024B","CENTER_NAME":"EARTH","REF_FRAME":"TEME","TIME_SYSTEM":"UTC","MEAN_ELEMENT_THEORY":"SGP4","EPOCH":"1962-07-11T01:29:13.724159","MEAN_MOTION":"16.08676625","ECCENTRICITY":"0.00000000","INCLINATION":"82.1135","RA_OF_ASC_NODE":"252.5045","ARG_OF_PERICENTER":"263.5375","MEAN_ANOMALY":"36.0198","EPHEMERIS_TYPE":"0","CLASSIFICATION_TYPE":"U","NORAD_CAT_ID":"310","ELEMENT_SET_NO":"999","REV_AT_EPOCH":"350","BSTAR":"0.00000000000000","MEAN_MOTION_DOT":"0.04017247","MEAN_MOTION_DDOT":"0.0177810000000","SEMIMAJOR_AXIS":"6628.617","PERIOD":"89.514","APOAPSIS":"250.482","PERIAPSIS":"250.482","OBJECT_TYPE":"DEBRIS","RCS_SIZE":null,"COUNTRY_CODE":null,"LAUNCH_DATE":null,"SITE":null,"DECAY_DATE":"1962-07-12","FILE":"33908","GP_ID":"8677607","TLE_LINE0":"0 FTV 2312 DEB","TLE_LINE1":"1 00310U 62024  B 62192.06196440  .04017247 +17781-1 +00000-0 0  9998","TLE_LINE2":"2 00310 082.1135 252.5045 0000000 263.5375 036.0198 16.08676625003502"}]